KUIPER-00008            
1 63724U 25088A   25343.91116802 -.00021831  00000+0 -17394-2 0  9992
2 63724  51.8876 136.1491 0010223 161.6649 198.4692 14.99535302 34596
KUIPER-00009            
1 63725U 25088B   25344.17072018  .00001795  00000+0  26452-3 0  9993
2 63725  51.9021 142.4686 0012943 153.2354 206.9279 14.79937596 34525
KUIPER-00010            
1 63726U 25088C   25343.68219346  .00003138  00000+0  43580-3 0  9990
2 63726  51.9014 121.0107 0011999 199.1059 160.9455 14.80370802 34405
KUIPER-00011            
1 63727U 25088D   25343.71595438 -.00002396  00000+0 -28433-3 0  9991
2 63727  51.9036 128.5214 0015107 163.8363 196.3085 14.79920915 34431
KUIPER-00012            
1 63728U 25088E   25343.74586109 -.00002277  00000+0 -29131-3 0  9994
2 63728  51.9017 111.7011 0008542 181.9279 178.1651 14.76747095 34623
KUIPER-00013            
1 63729U 25088F   25344.16979769  .00001284  00000+0  19760-3 0  9992
2 63729  51.9008 143.9412 0008721  88.7139 271.4823 14.79936898 34312
KUIPER-00014            
1 63730U 25088G   25344.16810651  .00001393  00000+0  21177-3 0  9994
2 63730  51.9014 144.9184 0009985 148.3646 211.7918 14.79950560 34119
KUIPER-00015            
1 63731U 25088H   25342.79529204  .00003296  00000+0  43988-3 0  9991
2 63731  51.8976 162.0300 0011204 133.9503 226.2387 14.81951152 34219
